[{
        "CONSTELLATION": "Canadian_Space_Agency",
        "CDM_ID": "953052682",
        "FILENAME": "000027858_conj_000030738_2025057171735_15411.xml",
        "INSERT_EPOCH": "2025-02-26T10:15:42",
        "CCSDS_CDM_VERS": "1.0",
        "CREATION_DATE": "2025-02-26T08:19:58.000000",
        "ORIGINATOR": "CSpOC",
        "MESSAGE_FOR": "SCISAT 1",
        "MESSAGE_ID": "000027858_conj_000030738_2025057171735_05708182115411",
        "COMMENT_EMERGENCY_REPORTABLE": null,
        "TCA": "2025-02-26T17:17:35.702000",
        "MISS_DISTANCE": "25635",
        "MISS_DISTANCE_UNIT": "m",
        "RELATIVE_SPEED": "14016",
        "RELATIVE_SPEED_UNIT": "m\/s",
        "RELATIVE_POSITION_R": "359.4",
        "RELATIVE_POSITION_R_UNIT": "m",
        "RELATIVE_POSITION_T": "9434.4",
        "RELATIVE_POSITION_T_UNIT": "m",
        "RELATIVE_POSITION_N": "-23833.7",
        "RELATIVE_POSITION_N_UNIT": "m",
        "RELATIVE_VELOCITY_R": "-22.7",
        "RELATIVE_VELOCITY_R_UNIT": "m\/s",
        "RELATIVE_VELOCITY_T": "-13031.7",
        "RELATIVE_VELOCITY_T_UNIT": "m\/s",
        "RELATIVE_VELOCITY_N": "-5161.2",
        "RELATIVE_VELOCITY_N_UNIT": "m\/s",
        "COMMENT_SCREENING_OPTION": "Screening Option = Covariance",
        "COLLISION_PROBABILITY": "0",
        "COLLISION_PROBABILITY_METHOD": "FOSTER-1992",
        "COMMENT_EFFECTIVE_HBR": null,
        "SAT1_COMMENT_SCREENING_DATA_SOURCE": "Screened with = inertial state vector.",
        "SAT1_OBJECT": "OBJECT1",
        "SAT1_OBJECT_DESIGNATOR": "27858",
        "SAT1_CATALOG_NAME": "SATCAT",
        "SAT1_OBJECT_NAME": "SCISAT 1",
        "SAT1_INTERNATIONAL_DESIGNATOR": "2003-036A",
        "SAT1_OBJECT_TYPE": "PAYLOAD",
        "SAT1_OPERATOR_CONTACT_POSITION": "https:\/\/www.space-track.org\/expandedspacedata\/query\/class\/organization\/object\/~~27858\/orderby\/ORG_NAME,INFO_ID\/format\/html\/emptyresult\/show\/",
        "SAT1_OPERATOR_ORGANIZATION": "Canadian_Space_Agency",
        "SAT1_OPERATOR_PHONE": "https:\/\/www.space-track.org\/expandedspacedata\/query\/class\/organization\/object\/~~27858\/orderby\/ORG_NAME,INFO_ID\/format\/html\/emptyresult\/show\/",
        "SAT1_OPERATOR_EMAIL": "https:\/\/www.space-track.org\/expandedspacedata\/query\/class\/organization\/object\/~~27858\/orderby\/ORG_NAME,INFO_ID\/format\/html\/emptyresult\/show\/",
        "SAT1_EPHEMERIS_NAME": "NONE",
        "SAT1_COVARIANCE_METHOD": "CALCULATED",
        "SAT1_MANEUVERABLE": "NO",
        "SAT1_REF_FRAME": "ITRF",
        "SAT1_GRAVITY_MODEL": "EGM-96: 70D 70O",
        "SAT1_ATMOSPHERIC_MODEL": "JBH09",
        "SAT1_N_BODY_PERTURBATIONS": "MOON,SUN",
        "SAT1_SOLAR_RAD_PRESSURE": "YES",
        "SAT1_EARTH_TIDES": "YES",
        "SAT1_INTRACK_THRUST": "NO",
        "SAT1_COMMENT_COVARIANCE_SCALE_FACTOR": "Covariance Scale Factor = 1.000000",
        "SAT1_COMMENT_EXCLUSION_VOLUME_RADIUS": "Exclusion Volume Radius = 5.000000 [m]",
        "SAT1_TIME_LASTOB_START": "2025-02-25T08:19:58.497000",
        "SAT1_TIME_LASTOB_END": "2025-02-26T08:19:58.497000",
        "SAT1_RECOMMENDED_OD_SPAN": "4.93",
        "SAT1_RECOMMENDED_OD_SPAN_UNIT": "d",
        "SAT1_ACTUAL_OD_SPAN": "4.93",
        "SAT1_ACTUAL_OD_SPAN_UNIT": "d",
        "SAT1_OBS_AVAILABLE": "150",
        "SAT1_OBS_USED": "150",
        "SAT1_TRACKS_AVAILABLE": "36",
        "SAT1_TRACKS_USED": "36",
        "SAT1_RESIDUALS_ACCEPTED": "100",
        "SAT1_RESIDUALS_ACCEPTED_UNIT": "%",
        "SAT1_WEIGHTED_RMS": "1.416",
        "SAT1_COMMENT_APOGEE": "Apogee Altitude = 649   [km]",
        "SAT1_COMMENT_PERIGEE": "Perigee Altitude = 619   [km]",
        "SAT1_COMMENT_INCLINATION": "Inclination = 73.9  [deg]",
        "SAT1_COMMENT_OPERATOR_HARD_BODY_RADIUS": null,
        "SAT1_AREA_PC": "0.8727",
        "SAT1_AREA_PC_UNIT": "m**2",
        "SAT1_CD_AREA_OVER_MASS": "0.014401149462",
        "SAT1_CD_AREA_OVER_MASS_UNIT": "m**2\/kg",
        "SAT1_CR_AREA_OVER_MASS": "0.000853256622",
        "SAT1_CR_AREA_OVER_MASS_UNIT": "m**2\/kg",
        "SAT1_THRUST_ACCELERATION": "0",
        "SAT1_THRUST_ACCELERATION_UNIT": "m\/s**2",
        "SAT1_SEDR": "0.000680851",
        "SAT1_SEDR_UNIT": "W\/kg",
        "SAT1_X": "-332.78877",
        "SAT1_X_UNIT": "km",
        "SAT1_Y": "-1947.433196",
        "SAT1_Y_UNIT": "km",
        "SAT1_Z": "-6725.57926",
        "SAT1_Z_UNIT": "km",
        "SAT1_X_DOT": "6.926879411",
        "SAT1_X_DOT_UNIT": "km\/s",
        "SAT1_Y_DOT": "-2.549326975",
        "SAT1_Y_DOT_UNIT": "km\/s",
        "SAT1_Z_DOT": "0.39033651",
        "SAT1_Z_DOT_UNIT": "km\/s",
        "SAT1_COMMENT_DCP_DENSITY_FORECAST_UNCERTAINTY": "DCP Density Forecast Uncertainty = 2.030961230000000E-01",
        "SAT1_COMMENT_DCP_SENSITIVITY_VECTOR_POSITION": "DCP Sensitivity Vector RTN Pos = -8.072767312090500E+00 4.031690475603343E+02  1.892580022707139E-01  [m]",
        "SAT1_COMMENT_DCP_SENSITIVITY_VECTOR_VELOCITY": "DCP Sensitivity Vector RTN Vel = -4.296302067203353E-01 4.078208222870722E-03  5.043341167916581E-04  [m\/sec]",
        "SAT1_CR_R": "112.2278971675107",
        "SAT1_CR_R_UNIT": "m**2",
        "SAT1_CT_R": "-288.5320533898737",
        "SAT1_CT_R_UNIT": "m**2",
        "SAT1_CT_T": "18872.00715996129",
        "SAT1_CT_T_UNIT": "m**2",
        "SAT1_CN_R": "36.55136279549788",
        "SAT1_CN_R_UNIT": "m**2",
        "SAT1_CN_T": "-293.9349875856103",
        "SAT1_CN_T_UNIT": "m**2",
        "SAT1_CN_N": "279.4628927265812",
        "SAT1_CN_N_UNIT": "m**2",
        "SAT1_CRDOT_R": "0.2425942052347342",
        "SAT1_CRDOT_R_UNIT": "m**2\/s",
        "SAT1_CRDOT_T": "-19.4165631052443",
        "SAT1_CRDOT_T_UNIT": "m**2\/s",
        "SAT1_CRDOT_N": "0.1893038230417602",
        "SAT1_CRDOT_N_UNIT": "m**2\/s",
        "SAT1_CRDOT_RDOT": "0.02020904984014777",
        "SAT1_CRDOT_RDOT_UNIT": "m**2\/s**2",
        "SAT1_CTDOT_R": "-0.11937052342703",
        "SAT1_CTDOT_R_UNIT": "m**2\/s",
        "SAT1_CTDOT_T": "0.2026728941492478",
        "SAT1_CTDOT_T_UNIT": "m**2\/s",
        "SAT1_CTDOT_N": "-0.03951726508987",
        "SAT1_CTDOT_N_UNIT": "m**2\/s",
        "SAT1_CTDOT_RDOT": "-0.0001452438089892256",
        "SAT1_CTDOT_RDOT_UNIT": "m**2\/s**2",
        "SAT1_CTDOT_TDOT": "0.000127963544757717",
        "SAT1_CTDOT_TDOT_UNIT": "m**2\/s**2",
        "SAT1_CNDOT_R": "-0.009614807323684103",
        "SAT1_CNDOT_R_UNIT": "m**2\/s",
        "SAT1_CNDOT_T": "-0.08526267020697993",
        "SAT1_CNDOT_T_UNIT": "m**2\/s",
        "SAT1_CNDOT_N": "0.127287520143507",
        "SAT1_CNDOT_N_UNIT": "m**2\/s",
        "SAT1_CNDOT_RDOT": "0.00002606283803552313",
        "SAT1_CNDOT_RDOT_UNIT": "m**2\/s**2",
        "SAT1_CNDOT_TDOT": "0.00001009556568165954",
        "SAT1_CNDOT_TDOT_UNIT": "m**2\/s**2",
        "SAT1_CNDOT_NDOT": "0.0002019148049753524",
        "SAT1_CNDOT_NDOT_UNIT": "m**2\/s**2",
        "SAT1_CDRG_R": "0",
        "SAT1_CDRG_R_UNIT": "m**3\/kg",
        "SAT1_CDRG_T": "0",
        "SAT1_CDRG_T_UNIT": "m**3\/kg",
        "SAT1_CDRG_N": "0",
        "SAT1_CDRG_N_UNIT": "m**3\/kg",
        "SAT1_CDRG_RDOT": "0",
        "SAT1_CDRG_RDOT_UNIT": "m**3\/(kg*s)",
        "SAT1_CDRG_TDOT": "0",
        "SAT1_CDRG_TDOT_UNIT": "m**3\/(kg*s)",
        "SAT1_CDRG_NDOT": "0",
        "SAT1_CDRG_NDOT_UNIT": "m**3\/(kg*s)",
        "SAT1_CDRG_DRG": "0",
        "SAT1_CDRG_DRG_UNIT": "m**4\/kg**2",
        "SAT1_CSRP_R": "0",
        "SAT1_CSRP_R_UNIT": "m**3\/kg",
        "SAT1_CSRP_T": "0",
        "SAT1_CSRP_T_UNIT": "m**3\/kg",
        "SAT1_CSRP_N": "0",
        "SAT1_CSRP_N_UNIT": "m**3\/kg",
        "SAT1_CSRP_RDOT": "0",
        "SAT1_CSRP_RDOT_UNIT": "m**3\/(kg*s)",
        "SAT1_CSRP_TDOT": "0",
        "SAT1_CSRP_TDOT_UNIT": "m**3\/(kg*s)",
        "SAT1_CSRP_NDOT": "0",
        "SAT1_CSRP_NDOT_UNIT": "m**3\/(kg*s)",
        "SAT1_CSRP_DRG": "0",
        "SAT1_CSRP_DRG_UNIT": "m**4\/kg**2",
        "SAT1_CSRP_SRP": "0",
        "SAT1_CSRP_SRP_UNIT": "m**4\/kg**2",
        "SAT2_COMMENT_SCREENING_DATA_SOURCE": "Screened with = inertial state vector.",
        "SAT2_OBJECT": "OBJECT2",
        "SAT2_OBJECT_DESIGNATOR": "30738",
        "SAT2_CATALOG_NAME": "SATCAT",
        "SAT2_OBJECT_NAME": "FENGYUN 1C DEB",
        "SAT2_INTERNATIONAL_DESIGNATOR": "1999-025ASY",
        "SAT2_OBJECT_TYPE": "DEBRIS",
        "SAT2_OPERATOR_CONTACT_POSITION": "https:\/\/www.space-track.org\/expandedspacedata\/query\/class\/organization\/object\/~~30738\/orderby\/ORG_NAME,INFO_ID\/format\/html\/emptyresult\/show\/",
        "SAT2_OPERATOR_ORGANIZATION": "NONE",
        "SAT2_OPERATOR_PHONE": "https:\/\/www.space-track.org\/expandedspacedata\/query\/class\/organization\/object\/~~30738\/orderby\/ORG_NAME,INFO_ID\/format\/html\/emptyresult\/show\/",
        "SAT2_OPERATOR_EMAIL": "https:\/\/www.space-track.org\/expandedspacedata\/query\/class\/organization\/object\/~~30738\/orderby\/ORG_NAME,INFO_ID\/format\/html\/emptyresult\/show\/",
        "SAT2_EPHEMERIS_NAME": "NONE",
        "SAT2_COVARIANCE_METHOD": "CALCULATED",
        "SAT2_MANEUVERABLE": "N\/A",
        "SAT2_REF_FRAME": "ITRF",
        "SAT2_GRAVITY_MODEL": "EGM-96: 70D 70O",
        "SAT2_ATMOSPHERIC_MODEL": "JBH09",
        "SAT2_N_BODY_PERTURBATIONS": "MOON,SUN",
        "SAT2_SOLAR_RAD_PRESSURE": "YES",
        "SAT2_EARTH_TIDES": "YES",
        "SAT2_INTRACK_THRUST": "NO",
        "SAT2_COMMENT_COVARIANCE_SCALE_FACTOR": "Covariance Scale Factor = 1.000000",
        "SAT2_COMMENT_EXCLUSION_VOLUME_RADIUS": "Exclusion Volume Radius = 1.000000 [m]",
        "SAT2_TIME_LASTOB_START": "2025-02-24T08:19:58.533000",
        "SAT2_TIME_LASTOB_END": "2025-02-25T08:19:58.533000",
        "SAT2_RECOMMENDED_OD_SPAN": "3.83",
        "SAT2_RECOMMENDED_OD_SPAN_UNIT": "d",
        "SAT2_ACTUAL_OD_SPAN": "3.83",
        "SAT2_ACTUAL_OD_SPAN_UNIT": "d",
        "SAT2_OBS_AVAILABLE": "18",
        "SAT2_OBS_USED": "16",
        "SAT2_TRACKS_AVAILABLE": "5",
        "SAT2_TRACKS_USED": "5",
        "SAT2_RESIDUALS_ACCEPTED": "100",
        "SAT2_RESIDUALS_ACCEPTED_UNIT": "%",
        "SAT2_WEIGHTED_RMS": "1.634",
        "SAT2_COMMENT_APOGEE": "Apogee Altitude = 645   [km]",
        "SAT2_COMMENT_PERIGEE": "Perigee Altitude = 630   [km]",
        "SAT2_COMMENT_INCLINATION": "Inclination = 99.4  [deg]",
        "SAT2_COMMENT_OPERATOR_HARD_BODY_RADIUS": null,
        "SAT2_AREA_PC": "0.0045",
        "SAT2_AREA_PC_UNIT": "m**2",
        "SAT2_CD_AREA_OVER_MASS": "0.678093137888",
        "SAT2_CD_AREA_OVER_MASS_UNIT": "m**2\/kg",
        "SAT2_CR_AREA_OVER_MASS": "0.198502726647",
        "SAT2_CR_AREA_OVER_MASS_UNIT": "m**2\/kg",
        "SAT2_THRUST_ACCELERATION": "0",
        "SAT2_THRUST_ACCELERATION_UNIT": "m\/s**2",
        "SAT2_SEDR": "0.0283916",
        "SAT2_SEDR_UNIT": "W\/kg",
        "SAT2_X": "-315.796617",
        "SAT2_X_UNIT": "km",
        "SAT2_Y": "-1929.354387",
        "SAT2_Y_UNIT": "km",
        "SAT2_Z": "-6732.029415",
        "SAT2_Z_UNIT": "km",
        "SAT2_X_DOT": "-3.533940557",
        "SAT2_X_DOT_UNIT": "km\/s",
        "SAT2_Y_DOT": "6.539808945",
        "SAT2_Y_DOT_UNIT": "km\/s",
        "SAT2_Z_DOT": "-1.700479698",
        "SAT2_Z_DOT_UNIT": "km\/s",
        "SAT2_COMMENT_DCP_DENSITY_FORECAST_UNCERTAINTY": "DCP Density Forecast Uncertainty = 2.026684680000000E-01",
        "SAT2_COMMENT_DCP_SENSITIVITY_VECTOR_POSITION": "DCP Sensitivity Vector RTN Pos = -4.816567842187370E+02 3.044142002538801E+04  1.180300453492202E+01  [m]",
        "SAT2_COMMENT_DCP_SENSITIVITY_VECTOR_VELOCITY": "DCP Sensitivity Vector RTN Vel = -3.289254641547745E+01 1.753284780752237E-01  -1.941014206470068E-02 [m\/sec]",
        "SAT2_CR_R": "18706.69707544363",
        "SAT2_CR_R_UNIT": "m**2",
        "SAT2_CT_R": "-705356.4603011135",
        "SAT2_CT_R_UNIT": "m**2",
        "SAT2_CT_T": "42378366.14729083",
        "SAT2_CT_T_UNIT": "m**2",
        "SAT2_CN_R": "4734.268405815804",
        "SAT2_CN_R_UNIT": "m**2",
        "SAT2_CN_T": "-2008.744170009688",
        "SAT2_CN_T_UNIT": "m**2",
        "SAT2_CN_N": "41540.75045252263",
        "SAT2_CN_N_UNIT": "m**2",
        "SAT2_CRDOT_R": "761.5396435521078",
        "SAT2_CRDOT_R_UNIT": "m**2\/s",
        "SAT2_CRDOT_T": "-45763.56089086446",
        "SAT2_CRDOT_T_UNIT": "m**2\/s",
        "SAT2_CRDOT_N": "1.872712380241702",
        "SAT2_CRDOT_N_UNIT": "m**2\/s",
        "SAT2_CRDOT_RDOT": "49.42067914413262",
        "SAT2_CRDOT_RDOT_UNIT": "m**2\/s**2",
        "SAT2_CTDOT_R": "-12.84168430779474",
        "SAT2_CTDOT_R_UNIT": "m**2\/s",
        "SAT2_CTDOT_T": "304.1801760441035",
        "SAT2_CTDOT_T_UNIT": "m**2\/s",
        "SAT2_CTDOT_N": "-5.261213219599695",
        "SAT2_CTDOT_N_UNIT": "m**2\/s",
        "SAT2_CTDOT_RDOT": "-0.3281462839631857",
        "SAT2_CTDOT_RDOT_UNIT": "m**2\/s**2",
        "SAT2_CTDOT_TDOT": "0.01096737432140406",
        "SAT2_CTDOT_TDOT_UNIT": "m**2\/s**2",
        "SAT2_CNDOT_R": "7.320150224217201",
        "SAT2_CNDOT_R_UNIT": "m**2\/s",
        "SAT2_CNDOT_T": "-86.99740816838961",
        "SAT2_CNDOT_T_UNIT": "m**2\/s",
        "SAT2_CNDOT_N": "9.682018437740822",
        "SAT2_CNDOT_N_UNIT": "m**2\/s",
        "SAT2_CNDOT_RDOT": "0.09290888774097285",
        "SAT2_CNDOT_RDOT_UNIT": "m**2\/s**2",
        "SAT2_CNDOT_TDOT": "-0.007342770806436781",
        "SAT2_CNDOT_TDOT_UNIT": "m**2\/s**2",
        "SAT2_CNDOT_NDOT": "0.01276099163636809",
        "SAT2_CNDOT_NDOT_UNIT": "m**2\/s**2",
        "SAT2_CDRG_R": "0",
        "SAT2_CDRG_R_UNIT": "m**3\/kg",
        "SAT2_CDRG_T": "0",
        "SAT2_CDRG_T_UNIT": "m**3\/kg",
        "SAT2_CDRG_N": "0",
        "SAT2_CDRG_N_UNIT": "m**3\/kg",
        "SAT2_CDRG_RDOT": "0",
        "SAT2_CDRG_RDOT_UNIT": "m**3\/(kg*s)",
        "SAT2_CDRG_TDOT": "0",
        "SAT2_CDRG_TDOT_UNIT": "m**3\/(kg*s)",
        "SAT2_CDRG_NDOT": "0",
        "SAT2_CDRG_NDOT_UNIT": "m**3\/(kg*s)",
        "SAT2_CDRG_DRG": "0",
        "SAT2_CDRG_DRG_UNIT": "m**4\/kg**2",
        "SAT2_CSRP_R": "0",
        "SAT2_CSRP_R_UNIT": "m**3\/kg",
        "SAT2_CSRP_T": "0",
        "SAT2_CSRP_T_UNIT": "m**3\/kg",
        "SAT2_CSRP_N": "0",
        "SAT2_CSRP_N_UNIT": "m**3\/kg",
        "SAT2_CSRP_RDOT": "0",
        "SAT2_CSRP_RDOT_UNIT": "m**3\/(kg*s)",
        "SAT2_CSRP_TDOT": "0",
        "SAT2_CSRP_TDOT_UNIT": "m**3\/(kg*s)",
        "SAT2_CSRP_NDOT": "0",
        "SAT2_CSRP_NDOT_UNIT": "m**3\/(kg*s)",
        "SAT2_CSRP_DRG": "0",
        "SAT2_CSRP_DRG_UNIT": "m**4\/kg**2",
        "SAT2_CSRP_SRP": "0",
        "SAT2_CSRP_SRP_UNIT": "m**4\/kg**2",
        "GID": "23"
    }]